[{"OBJECT_NAME":"STARLINK-32078","OBJECT_ID":"2024-136K","EPOCH":"2026-03-09T10:15:24.912288","MEAN_MOTION":15.30183824,"ECCENTRICITY":0.0001397,"INCLINATION":53.161,"RA_OF_ASC_NODE":76.9367,"ARG_OF_PERICENTER":99.4647,"MEAN_ANOMALY":260.6512,"EPHEMERIS_TYPE":0,"CLASSIFICATION_TYPE":"U","NORAD_CAT_ID":60338,"ELEMENT_SET_NO":999,"REV_AT_EPOCH":8962,"BSTAR":0.00012623976,"MEAN_MOTION_DOT":3.38e-5,"MEAN_MOTION_DDOT":0},{"OBJECT_NAME":"LIZZIESAT-2 (LS-2)","OBJECT_ID":"2024-247G","EPOCH":"2026-03-09T11:47:37.199328","MEAN_MOTION":15.28222796,"ECCENTRICITY":0.00040927,"INCLINATION":44.9909,"RA_OF_ASC_NODE":117.0823,"ARG_OF_PERICENTER":327.5136,"MEAN_ANOMALY":32.5495,"EPHEMERIS_TYPE":0,"CLASSIFICATION_TYPE":"U","NORAD_CAT_ID":62383,"ELEMENT_SET_NO":999,"REV_AT_EPOCH":6771,"BSTAR":0.00034516624,"MEAN_MOTION_DOT":9.388e-5,"MEAN_MOTION_DDOT":0}]
